EUTELSAT 9B             
1 41310U 16005A   26063.15878102  .00000050  00000+0  00000+0 0  9993
2 41310   0.0255  60.2161 0004303 259.2311 268.6194  1.00274626 37062
EUTELSAT 65 WEST A      
1 41382U 16014A   26063.15044814 -.00000289  00000+0  00000+0 0  9992
2 41382   0.0706  41.1938 0002241 297.2475 172.4239  1.00272377 36482
EUTELSAT 117 WEST B     
1 41589U 16038B   26063.13382090 -.00000024  00000+0  00000+0 0  9993
2 41589   0.0383 347.9115 0000199 235.6485 229.5029  1.00271894 35611
EUTELSAT 172B           
1 42741U 17029B   26063.11978084 -.00000018  00000+0  00000+0 0  9990
2 42741   0.0193 153.7773 0000160 105.4726 117.7193  1.00273035 32687
EUTELSAT 7C             
1 44334U 19034B   26063.15834770  .00000035  00000+0  00000+0 0  9993
2 44334   0.0721 179.9036 0003304 150.2270 255.7504  1.00270230  5785
EUTELSAT 5 WEST B       
1 44624U 19067A   26063.15600767 -.00000055  00000+0  00000+0 0  9991
2 44624   0.0953 310.0726 0003201  41.6885 221.2732  1.00272586 23382
EUTELSAT KONNECT        
1 45027U 20005B   26063.15843435  .00000037  00000+0  00000+0 0  9993
2 45027   0.0678  97.7818 0001057 224.1224 264.2232  1.00271131 23283
EUTELSAT QUANTUM        
1 49056U 21069B   26063.09508074  .00000113  00000+0  00000+0 0  9995
2 49056   0.0438 310.1582 0002917  28.3907 265.2127  1.00272071 16876
EUTELSAT KONNECT VHTS   
1 53765U 22110A   26062.94360319  .00000005  00000+0  00000+0 0  9996
2 53765   0.0576 103.9798 0003432 210.7850 189.3183  1.00281471  5785
EUTELSAT HOTBIRD 13F    
1 54048U 22134A   26063.05739267  .00000074  00000+0  00000+0 0  9998
2 54048   0.0579 296.5026 0002095  61.1445 197.8064  1.00272044 12324
EUTELSAT HOTBIRD 13G    
1 54225U 22146A   26063.15956104  .00000074  00000+0  00000+0 0  9990
2 54225   0.0479 231.0058 0001927 312.9447  48.3914  1.00271900  6418
EUTELSAT 10B            
1 54259U 22157A   26062.91642017  .00000056  00000+0  00000+0 0  9997
2 54259   0.0576 102.9981 0000611 356.8423  41.7043  1.00281498 11974
EUTELSAT 36D            
1 59346U 24059A   26063.05669711  .00000143  00000+0  00000+0 0  9995
2 59346   0.0145 143.1639 0000253 188.5343 246.3672  1.00270785  7094
