[{"OBJECT_NAME":"EUTELSAT 9B","OBJECT_ID":"2016-005A","EPOCH":"2026-03-04T03:48:38.680128","MEAN_MOTION":1.00274626,"ECCENTRICITY":0.0004303,"INCLINATION":0.0255,"RA_OF_ASC_NODE":60.2161,"ARG_OF_PERICENTER":259.2311,"MEAN_ANOMALY":268.6194,"EPHEMERIS_TYPE":0,"CLASSIFICATION_TYPE":"U","NORAD_CAT_ID":41310,"ELEMENT_SET_NO":999,"REV_AT_EPOCH":3706,"BSTAR":0,"MEAN_MOTION_DOT":5.0e-7,"MEAN_MOTION_DDOT":0},{"OBJECT_NAME":"EUTELSAT 65 WEST A","OBJECT_ID":"2016-014A","EPOCH":"2026-03-04T03:36:38.719296","MEAN_MOTION":1.00272377,"ECCENTRICITY":0.0002241,"INCLINATION":0.0706,"RA_OF_ASC_NODE":41.1938,"ARG_OF_PERICENTER":297.2475,"MEAN_ANOMALY":172.4239,"EPHEMERIS_TYPE":0,"CLASSIFICATION_TYPE":"U","NORAD_CAT_ID":41382,"ELEMENT_SET_NO":999,"REV_AT_EPOCH":3648,"BSTAR":0,"MEAN_MOTION_DOT":-2.89e-6,"MEAN_MOTION_DDOT":0},{"OBJECT_NAME":"EUTELSAT 117 WEST B","OBJECT_ID":"2016-038B","EPOCH":"2026-03-04T03:12:42.125760","MEAN_MOTION":1.00271894,"ECCENTRICITY":1.99e-5,"INCLINATION":0.0383,"RA_OF_ASC_NODE":347.9115,"ARG_OF_PERICENTER":235.6485,"MEAN_ANOMALY":229.5029,"EPHEMERIS_TYPE":0,"CLASSIFICATION_TYPE":"U","NORAD_CAT_ID":41589,"ELEMENT_SET_NO":999,"REV_AT_EPOCH":3561,"BSTAR":0,"MEAN_MOTION_DOT":-2.4e-7,"MEAN_MOTION_DDOT":0},{"OBJECT_NAME":"EUTELSAT 172B","OBJECT_ID":"2017-029B","EPOCH":"2026-03-04T02:52:29.064576","MEAN_MOTION":1.00273035,"ECCENTRICITY":1.6e-5,"INCLINATION":0.0193,"RA_OF_ASC_NODE":153.7773,"ARG_OF_PERICENTER":105.4726,"MEAN_ANOMALY":117.7193,"EPHEMERIS_TYPE":0,"CLASSIFICATION_TYPE":"U","NORAD_CAT_ID":42741,"ELEMENT_SET_NO":999,"REV_AT_EPOCH":3268,"BSTAR":0,"MEAN_MOTION_DOT":-1.8e-7,"MEAN_MOTION_DDOT":0},{"OBJECT_NAME":"EUTELSAT 7C","OBJECT_ID":"2019-034B","EPOCH":"2026-03-04T03:48:01.241280","MEAN_MOTION":1.0027023,"ECCENTRICITY":0.0003304,"INCLINATION":0.0721,"RA_OF_ASC_NODE":179.9036,"ARG_OF_PERICENTER":150.227,"MEAN_ANOMALY":255.7504,"EPHEMERIS_TYPE":0,"CLASSIFICATION_TYPE":"U","NORAD_CAT_ID":44334,"ELEMENT_SET_NO":999,"REV_AT_EPOCH":578,"BSTAR":0,"MEAN_MOTION_DOT":3.5e-7,"MEAN_MOTION_DDOT":0},{"OBJECT_NAME":"EUTELSAT 5 WEST B","OBJECT_ID":"2019-067A","EPOCH":"2026-03-04T03:44:39.062688","MEAN_MOTION":1.00272586,"ECCENTRICITY":0.0003201,"INCLINATION":0.0953,"RA_OF_ASC_NODE":310.0726,"ARG_OF_PERICENTER":41.6885,"MEAN_ANOMALY":221.2732,"EPHEMERIS_TYPE":0,"CLASSIFICATION_TYPE":"U","NORAD_CAT_ID":44624,"ELEMENT_SET_NO":999,"REV_AT_EPOCH":2338,"BSTAR":0,"MEAN_MOTION_DOT":-5.5e-7,"MEAN_MOTION_DDOT":0},{"OBJECT_NAME":"EUTELSAT KONNECT","OBJECT_ID":"2020-005B","EPOCH":"2026-03-04T03:48:08.727840","MEAN_MOTION":1.00271131,"ECCENTRICITY":0.0001057,"INCLINATION":0.0678,"RA_OF_ASC_NODE":97.7818,"ARG_OF_PERICENTER":224.1224,"MEAN_ANOMALY":264.2232,"EPHEMERIS_TYPE":0,"CLASSIFICATION_TYPE":"U","NORAD_CAT_ID":45027,"ELEMENT_SET_NO":999,"REV_AT_EPOCH":2328,"BSTAR":0,"MEAN_MOTION_DOT":3.7e-7,"MEAN_MOTION_DDOT":0},{"OBJECT_NAME":"EUTELSAT QUANTUM","OBJECT_ID":"2021-069B","EPOCH":"2026-03-04T02:16:54.975936","MEAN_MOTION":1.00272071,"ECCENTRICITY":0.0002917,"INCLINATION":0.0438,"RA_OF_ASC_NODE":310.1582,"ARG_OF_PERICENTER":28.3907,"MEAN_ANOMALY":265.2127,"EPHEMERIS_TYPE":0,"CLASSIFICATION_TYPE":"U","NORAD_CAT_ID":49056,"ELEMENT_SET_NO":999,"REV_AT_EPOCH":1687,"BSTAR":0,"MEAN_MOTION_DOT":1.13e-6,"MEAN_MOTION_DDOT":0},{"OBJECT_NAME":"EUTELSAT KONNECT VHTS","OBJECT_ID":"2022-110A","EPOCH":"2026-03-03T22:38:47.315616","MEAN_MOTION":1.00281471,"ECCENTRICITY":0.0003432,"INCLINATION":0.0576,"RA_OF_ASC_NODE":103.9798,"ARG_OF_PERICENTER":210.785,"MEAN_ANOMALY":189.3183,"EPHEMERIS_TYPE":0,"CLASSIFICATION_TYPE":"U","NORAD_CAT_ID":53765,"ELEMENT_SET_NO":999,"REV_AT_EPOCH":578,"BSTAR":0,"MEAN_MOTION_DOT":5.0e-8,"MEAN_MOTION_DDOT":0},{"OBJECT_NAME":"EUTELSAT HOTBIRD 13F","OBJECT_ID":"2022-134A","EPOCH":"2026-03-04T01:22:38.726688","MEAN_MOTION":1.00272044,"ECCENTRICITY":0.0002095,"INCLINATION":0.0579,"RA_OF_ASC_NODE":296.5026,"ARG_OF_PERICENTER":61.1445,"MEAN_ANOMALY":197.8064,"EPHEMERIS_TYPE":0,"CLASSIFICATION_TYPE":"U","NORAD_CAT_ID":54048,"ELEMENT_SET_NO":999,"REV_AT_EPOCH":1232,"BSTAR":0,"MEAN_MOTION_DOT":7.4e-7,"MEAN_MOTION_DDOT":0},{"OBJECT_NAME":"EUTELSAT HOTBIRD 13G","OBJECT_ID":"2022-146A","EPOCH":"2026-03-04T03:49:46.073856","MEAN_MOTION":1.002719,"ECCENTRICITY":0.0001927,"INCLINATION":0.0479,"RA_OF_ASC_NODE":231.0058,"ARG_OF_PERICENTER":312.9447,"MEAN_ANOMALY":48.3914,"EPHEMERIS_TYPE":0,"CLASSIFICATION_TYPE":"U","NORAD_CAT_ID":54225,"ELEMENT_SET_NO":999,"REV_AT_EPOCH":641,"BSTAR":0,"MEAN_MOTION_DOT":7.4e-7,"MEAN_MOTION_DDOT":0},{"OBJECT_NAME":"EUTELSAT 10B","OBJECT_ID":"2022-157A","EPOCH":"2026-03-03T21:59:38.702688","MEAN_MOTION":1.00281498,"ECCENTRICITY":6.11e-5,"INCLINATION":0.0576,"RA_OF_ASC_NODE":102.9981,"ARG_OF_PERICENTER":356.8423,"MEAN_ANOMALY":41.7043,"EPHEMERIS_TYPE":0,"CLASSIFICATION_TYPE":"U","NORAD_CAT_ID":54259,"ELEMENT_SET_NO":999,"REV_AT_EPOCH":1197,"BSTAR":0,"MEAN_MOTION_DOT":5.6e-7,"MEAN_MOTION_DDOT":0},{"OBJECT_NAME":"EUTELSAT 36D","OBJECT_ID":"2024-059A","EPOCH":"2026-03-04T01:21:38.630304","MEAN_MOTION":1.00270785,"ECCENTRICITY":2.53e-5,"INCLINATION":0.0145,"RA_OF_ASC_NODE":143.1639,"ARG_OF_PERICENTER":188.5343,"MEAN_ANOMALY":246.3672,"EPHEMERIS_TYPE":0,"CLASSIFICATION_TYPE":"U","NORAD_CAT_ID":59346,"ELEMENT_SET_NO":999,"REV_AT_EPOCH":709,"BSTAR":0,"MEAN_MOTION_DOT":1.43e-6,"MEAN_MOTION_DDOT":0}]
